#dP2024 10 21  0  0  0.00000000      97 __u+U IGS20 FIT  IAC
## 2337  86400.00000000   900.00000000 60604 0.0000000000000
+  119   C06C07C08C09C10C11C12C13C14C16C19C20C21C22C23C24C25
+        C26C27C28C29C30C32C33C34C35C36C37C38C39C40C41C42C43
+        C44C45E02E03E04E05E06E07E08E09E10E11E12E13E14E15E18
+        E19E21E24E25E26E27E29E30E31E33E34E36G02G03G04G05G06
+        G07G08G09G10G11G12G13G14G15G16G17G18G19G20G21G22G23
+        G24G25G26G27G28G29G30G31G32J02J03J04R01R02R03R04R05
+        R07R08R09R11R12R14R15R16R17R18R19R20R21R22R24R25R26
++         7  7  7  7  7  6  7  7  6  7  6  6  6  5  6  5  6
++         5  5  5  6  5  5  5  6  6  6  6  6  6  6  5  6  6
++         6  6  4  4  4  4  4  4  4  4  4  4  4  4  4  4  5
++         4  4  4  4  4  4  4  4  4  4  4  4  3  3  3  3  3
++         3  3  3  3  3  3  3  3  3  3  3  3  4  3  3  3  3
++         3  4  3  3  3  3  3  4  4 11 11 11  7  6  7  7  7
++         6  6  6  6  7  7  7  6  7  6  7  8  7  6  7  7  7
%c M  cc GPS ccc cccc cccc cccc cccc ccccc ccccc ccccc ccccc
%c cc cc ccc ccc cccc cccc cccc cccc ccccc ccccc ccccc ccccc
%f  1.2500000  1.025000000  0.00000000000  0.000000000000000
%f  0.0000000  0.000000000  0.00000000000  0.000000000000000
%i    0    0    0    0      0      0      0      0         0
%i    0    0    0    0      0      0      0      0         0
/* INFORMATION & ANALYSIS CENTER (IAC)            FINAL DATA
/* S/V CLOCKS ARE ALIGNED TO GNSS TIME                      
/* G:C1WC2W R:C1PC2P E:C1XC5X C:C2IC6I J:C1CC2S             
/* PCV:IGS20_2317 OL/AL:FES2004  NONE     YN ORB:CoN CLK:CoN
*  2024 10 21 17 45  0.00000000
PC06     93.798259  31844.165410 -27386.038756    349.626803
PC07 -15798.748688  29118.877334  26095.818635   -270.211780
PC08 -13436.238396  40102.665339   -710.731413   -688.794461
PC09   5338.087890  34676.297988 -22395.505576   -511.713206
PC10  -7349.665869  29482.990103  29432.731850   -240.618206
PC11   7115.710958  18680.753432  19554.917939    204.794071
PC12 -12978.263822  10267.802727  22515.101005   -256.922564
PC13  -8175.475934  40855.313061  -7257.893552     95.204073
PC14  -3536.844655  18842.012509 -20259.378209   -337.426315
PC16  -4245.415348  28536.853166 -30305.716959    164.634747
PC19  -6224.730436 -14444.811484  23064.936853   -952.193657
PC20  11393.370141 -20177.339385  15567.857691   -926.221080
PC21 -23929.742502  14159.958710   2242.554426   -920.270295
PC22 -21464.540358    -51.272170  17807.922851    157.872544
PC23  15658.085456  10461.053022  20599.189091   -863.921475
PC24  -5082.104585  25758.818858  -9514.108273    792.282465
PC25   7995.189921  25604.577796   7727.156070    539.207805
PC26 -14301.706890  11202.805199 -21212.698987   -366.012946
PC27  20689.489026  -4104.526449 -18284.902900    385.506398
PC28  25981.636221   8552.741082  -5535.296181    299.485431
PC29 -16024.690468 -18045.400736 -14007.901822    351.653381
PC30   4449.784930 -15617.874001 -22698.719332      5.926873
PC32  23860.414863 -14286.919983  -2369.693318   -774.744488
PC33   6251.427672  14472.691396 -23033.085382   -956.189683
PC34  -2551.895493  16354.731692  22456.900876    547.311072
PC35 -26294.673885  -8008.745566   4901.524671    229.284982
PC36  -7699.833209 -25541.066906  -8147.331633    207.084895
PC37  14604.998711 -10634.609994  21267.094868   -893.119098
PC38 -16506.171672  38222.740477   7276.629820    186.582128
PC39  -7181.569116  25641.654498 -32578.128657    -10.171655
PC40 -22432.356181  22659.084842  27464.249306    -98.001727
PC41  20973.992927    762.604727 -18354.335501   -896.457746
PC42 -12999.930195  20231.424066 -14102.411917   -498.452382
PC43  15110.412723  18277.096689  14691.977107     89.693777
PC44 -20691.941186   4884.818348  18076.564910    629.129619
PC45 -15397.043295 -11049.772757 -20480.248530   -152.412656
PE02   6443.187939 -26318.132803 -11899.882045    168.689601
PE03    502.181615 -16915.547395  24272.739705   -148.376034
PE04  20981.834226  12178.082838 -16962.275741    -62.803896
PE05  21163.702293 -11595.180640  17136.701536   4794.876571
PE06  27366.057558   6870.160381  -8956.894318    -38.724420
PE07 -29583.990932   -748.626692    363.676861   -148.568855
PE08 -20301.758492 -12445.403959  17566.367283   -355.128599
PE09  29592.390378    821.963428   -452.457123   -634.332186
PE10  19831.738018  16163.122489 -14899.188806   -664.681111
PE11  19203.984713   5768.484368 -21776.955670   1153.528638
PE12  17495.687414  22905.990214  -6719.684024  -1261.467947
PE13 -19280.253068  -6403.764603  21535.587085    -25.981963
PE14 -22863.724645  -5568.402101  -6430.337169    312.386662
PE15 -17227.177331 -23295.099553   6066.797986   -134.432025
PE18  32057.146341  -1370.167064  -2343.458446    684.003478
PE19  -2779.943596  16680.345493 -24295.529731    811.793511
PE21 -18512.021552  22258.496600  -6175.354179   -623.772795
PE24  20125.393527  -4707.473847  21168.092741  -1055.373823
PE25  18689.958186 -21980.719905   6603.498788     10.376741
PE26  -9831.430742  14440.265460  23907.388789   -234.304348
PE27 -20113.001848   4911.738898 -21156.020332   -483.719832
PE29 -20862.120002  11861.099926 -17347.507567    -39.452183
PE30  -9891.207093 -15106.987083 -23460.450914   -842.865905
PE31   9832.501140  15122.622531  23477.709132    -40.075289
PE33   4739.831617  26124.527875  13108.796522     15.888209
PE34  -5119.862198 -26218.980040 -12727.553232   -141.354999
PE36  10053.364275 -13872.061452 -24129.972842   -300.187338
PG02 -20365.120908  -9719.457198  14751.984873   -332.118997
PG03 -16610.897368   2815.767663  20336.373855    577.197661
PG04 -26578.272431   -780.347936   1678.954567    465.736573
PG05   9429.223743  13635.110194 -20917.419617   -190.516165
PG06   2170.241168  21930.813673  14815.382730    -55.207242
PG07 -13960.688010   6292.264816 -21194.718635    -25.766943
PG08 -22417.152306  -7235.400218 -12807.930445    391.138999
PG09 -24287.170494   7430.580047  -7971.998368    408.659728
PG10   9806.747403 -24243.103945   3646.257220   -166.651654
PG11  12460.870498  23451.919851   1454.351753   -745.580995
PG12  15703.625570   2325.001869  21003.769268   -546.710420
PG13  15224.312647  13414.670004 -17495.018615    682.519972
PG14 -12778.681757  23137.695304   -316.455446    522.577053
PG15  23068.347825   4864.958574 -12907.346505    218.417920
PG16  -4861.674888 -17703.113826 -19371.908351   -148.928418
PG17 -12089.066277  13577.194857  19844.777007    587.584565
PG18  12658.165241  -7867.550972 -21957.309567   -658.687979
PG19  -1231.519335  14991.399173  21737.220087    553.288422
PG20   3161.826133  22625.931350 -13595.421042    369.458691
PG21 -20468.941086 -15154.987614   9649.248832     99.269879
PG22  -8360.038305  24109.232292   8315.378818    -72.999383
PG23  16137.180243 -18503.208943  -9801.686414    346.524606
PG24  20599.012053  11868.616834  11794.091491   -483.970577
PG25  17874.465131 -11667.582527  15291.829214    499.439710
PG26   2024.036945 -24416.713771  -9928.936609     50.047944
PG27 -12873.292323 -13043.652441 -19666.999896    -34.655337
PG28   -925.559261 -21101.690593  16087.930627   -453.488352
PG29  25488.115640  -3923.512737  -6672.128709   -569.651739
PG30  -6316.964930  16656.715451 -19473.553904   -297.888782
PG31  -9610.272807 -23746.510448   5981.687673   -223.041982
PG32   8882.327591 -14749.506832  20386.430337   -584.004821
PJ02 -27771.669938  31777.220284   2442.545529     -1.319828
PJ03 -26116.896903  22612.911954  29332.848139     -5.034037
PJ04 -34161.756519  23334.981389  -3197.163001     21.901984
PR01   5109.279169   9661.230497 -23053.478241    101.801750
PR02  19495.521995      3.543771 -16368.053851    -25.295162
PR03  23389.214037 -10086.192060   -215.793500    109.856409
PR04  14614.285022 -13976.309925  15556.630620    260.316836
PR05  -2036.496460 -10684.944246  23075.224353    139.499076
PR07 -23392.892583  10246.685015   -165.701511     93.397494
PR08 -14345.672078  14174.491650 -15592.921291     -6.394034
PR09 -10114.215939  -8751.199187 -21717.591810    216.010019
PR11  -6740.658383  22764.234066  -9294.775960      8.759148
PR12   2452.845842  23245.317798  10252.477875     46.302741
PR14  11060.833969 -10173.754807  20628.411804     27.118398
PR15   6237.814628 -23528.449702   7658.334920     74.726030
PR16  -2349.461317 -23336.261541 -10063.163508     30.116150
PR17  16039.054333    635.397410 -19827.279966    132.799462
PR18   2605.608151 -11050.478490 -22824.170897    167.991575
PR19 -10119.452102 -17375.949507 -15680.130113   -295.697703
PR20 -20650.246817 -14221.180717   4791.768006   -120.769341
PR21 -16460.918512  -1447.472758  19424.596969   -144.682292
PR22  -2049.450233  12021.263994  22434.508768     14.164331
PR24  21395.800068  12901.757561  -5185.522771    -76.907990
PR25 -15879.978801   -646.101336  19952.526670    -89.378994
PR26 -15548.321151  14203.434666 -14367.034117   -530.459187
EOF
